{"type": "FeatureCollection", "features": [ {"type": "Feature", "properties": {"norad_id": 28649, "name": "IRS-P5 (CARTOSAT-1)", "group": "resource", "lat": -60.68434895506923, "lon": 19.24198067771354, "alt_km": 604.4162057711328, "timestamp": "2025-12-04T19:33:59.287899+00:00", "meta": {"OBJECT_NAME": "IRS-P5 (CARTOSAT-1)", "OBJECT_ID": "2005-017A", "EPOCH": "2025-12-04T00:30:22.414464", "MEAN_MOTION": 14.90357768, "ECCENTRICITY": 0.00017393, "INCLINATION": 97.5499, "RA_OF_ASC_NODE": 4.8212, "ARG_OF_PERICENTER": 52.4493, "MEAN_ANOMALY": 307.6884, "EPHEMERIS_TYPE": 0, "CLASSIFICATION_TYPE": "U", "NORAD_CAT_ID": 28649, "ELEMENT_SET_NO": 999, "REV_AT_EPOCH": 11474, "BSTAR": 0.00040691308, "MEAN_MOTION_DOT": 3.907e-05, "MEAN_MOTION_DDOT": 0}, "tle": {"line1": "1 28649U 05017A   25338.02109276  .00003907  00000+0  40691-3 0  9991", "line2": "2 28649  97.5499   4.8212 0001739  52.4493 307.6884 14.90357768114741"}}, "geometry": {"type": "Point", "coordinates": [19.24198067771354, -60.68434895506923]}}, {"type": "Feature", "properties": {"norad_id": 28893, "name": "SINAH 1", "group": "resource", "lat": -35.33279657876399, "lon": 113.2622435628889, "alt_km": 696.8020018993502, "timestamp": "2025-12-04T19:33:59.287908+00:00", "meta": {"OBJECT_NAME": "SINAH 1", "OBJECT_ID": "2005-043D", "EPOCH": "2025-12-04T06:36:24.948864", "MEAN_MOTION": 14.63947914, "ECCENTRICITY": 0.00148757, "INCLINATION": 98.26, "RA_OF_ASC_NODE": 106.8102, "ARG_OF_PERICENTER": 162.3881, "MEAN_ANOMALY": 197.784, "EPHEMERIS_TYPE": 0, "CLASSIFICATION_TYPE": "U", "NORAD_CAT_ID": 28893, "ELEMENT_SET_NO": 999, "REV_AT_EPOCH": 7200, "BSTAR": 0.00020345173, "MEAN_MOTION_DOT": 1.017e-05, "MEAN_MOTION_DDOT": 0}, "tle": {"line1": "1 28893U 05043D   25338.27528876  .00001017  00000+0  20345-3 0  9993", "line2": "2 28893  98.2600 106.8102 0014875 162.3881 197.7840 14.63947914 72002"}}, "geometry": {"type": "Point", "coordinates": [113.2622435628889, -35.33279657876399]}}, {"type": "Feature", "properties": {"norad_id": 29079, "name": "EROS B", "group": "resource", "lat": -71.59127059487186, "lon": 117.84712947714594, "alt_km": 378.8167425048532, "timestamp": "2025-12-04T19:33:59.287918+00:00", "meta": {"OBJECT_NAME": "EROS B", "OBJECT_ID": "2006-014A", "EPOCH": "2025-12-04T07:36:10.626624", "MEAN_MOTION": 15.65036149, "ECCENTRICITY": 0.00020772, "INCLINATION": 97.3492, "RA_OF_ASC_NODE": 94.5096, "ARG_OF_PERICENTER": 240.077, "MEAN_ANOMALY": 120.0283, "EPHEMERIS_TYPE": 0, "CLASSIFICATION_TYPE": "U", "NORAD_CAT_ID": 29079, "ELEMENT_SET_NO": 999, "REV_AT_EPOCH": 8948, "BSTAR": 0.0023603134, "MEAN_MOTION_DOT": 0.00238017, "MEAN_MOTION_DDOT": 0}, "tle": {"line1": "1 29079U 06014A   25338.31678966  .00238017  00000+0  23603-2 0  9991", "line2": "2 29079  97.3492  94.5096 0002077 240.0770 120.0283 15.65036149 89487"}}, "geometry": {"type": "Point", "coordinates": [117.84712947714594, -71.59127059487186]}}, {"type": "Feature", "properties": {"norad_id": 29228, "name": "RESURS-DK 1", "group": "resource", "lat": -53.63701438534692, "lon": 92.54775128412057, "alt_km": 531.9257775131382, "timestamp": "2025-12-04T19:33:59.287927+00:00", "meta": {"OBJECT_NAME": "RESURS-DK 1", "OBJECT_ID": "2006-021A", "EPOCH": "2025-12-03T20:00:42.744384", "MEAN_MOTION": 15.12079711, "ECCENTRICITY": 0.00078238, "INCLINATION": 69.9329, "RA_OF_ASC_NODE": 124.8507, "ARG_OF_PERICENTER": 265.1506, "MEAN_ANOMALY": 94.8767, "EPHEMERIS_TYPE": 0, "CLASSIFICATION_TYPE": "U", "NORAD_CAT_ID": 29228, "ELEMENT_SET_NO": 999, "REV_AT_EPOCH": 7303, "BSTAR": 0.00033225758, "MEAN_MOTION_DOT": 5.63e-05, "MEAN_MOTION_DDOT": 0}, "tle": {"line1": "1 29228U 06021A   25337.83382806  .00005630  00000+0  33226-3 0  9992", "line2": "2 29228  69.9329 124.8507 0007823 265.1506  94.8767 15.12079711 73033"}}, "geometry": {"type": "Point", "coordinates": [92.54775128412057, -53.63701438534692]}}, {"type": "Feature", "properties": {"norad_id": 29268, "name": "ARIRANG-2 (KOMPSAT-2)", "group": "resource", "lat": -34.47687660811532, "lon": -17.74532375590388, "alt_km": 689.9924981459935, "timestamp": "2025-12-04T19:33:59.287937+00:00", "meta": {"OBJECT_NAME": "ARIRANG-2 (KOMPSAT-2)", "OBJECT_ID": "2006-031A", "EPOCH": "2025-12-04T07:54:00.420192", "MEAN_MOTION": 14.6448248, "ECCENTRICITY": 0.00139443, "INCLINATION": 97.8264, "RA_OF_ASC_NODE": 167.2121, "ARG_OF_PERICENTER": 337.0021, "MEAN_ANOMALY": 196.6447, "EPHEMERIS_TYPE": 0, "CLASSIFICATION_TYPE": "U", "NORAD_CAT_ID": 29268, "ELEMENT_SET_NO": 999, "REV_AT_EPOCH": 3295, "BSTAR": 0.00016103808, "MEAN_MOTION_DOT": 8.09e-06, "MEAN_MOTION_DDOT": 0}, "tle": {"line1": "1 29268U 06031A   25338.32917153  .00000809  00000+0  16104-3 0  9990", "line2": "2 29268  97.8264 167.2121 0013944 337.0021 196.6447 14.64482480 32959"}}, "geometry": {"type": "Point", "coordinates": [-17.74532375590388, -34.47687660811532]}}, {"type": "Feature", "properties": {"norad_id": 29709, "name": "LAPAN-TUBSAT", "group": "resource", "lat": -80.99960465938635, "lon": 84.38921899790101, "alt_km": 628.2139362200223, "timestamp": "2025-12-04T19:33:59.287947+00:00", "meta": {"OBJECT_NAME": "LAPAN-TUBSAT", "OBJECT_ID": "2007-001A", "EPOCH": "2025-12-04T07:03:28.428192", "MEAN_MOTION": 14.85651207, "ECCENTRICITY": 0.00136102, "INCLINATION": 98.1252, "RA_OF_ASC_NODE": 328.2773, "ARG_OF_PERICENTER": 99.1369, "MEAN_ANOMALY": 261.1386, "EPHEMERIS_TYPE": 0, "CLASSIFICATION_TYPE": "U", "NORAD_CAT_ID": 29709, "ELEMENT_SET_NO": 999, "REV_AT_EPOCH": 2221, "BSTAR": 0.0001586467, "MEAN_MOTION_DOT": 1.319e-05, "MEAN_MOTION_DDOT": 0}, "tle": {"line1": "1 29709U 07001A   25338.29407903  .00001319  00000+0  15865-3 0  9991", "line2": "2 29709  98.1252 328.2773 0013610  99.1369 261.1386 14.85651207 22219"}}, "geometry": {"type": "Point", "coordinates": [84.38921899790101, -80.99960465938635]}}, {"type": "Feature", "properties": {"norad_id": 31113, "name": "HAIYANG-1B", "group": "resource", "lat": -81.64025424937593, "lon": 57.772596808507274, "alt_km": 804.9426148803896, "timestamp": "2025-12-04T19:33:59.287956+00:00", "meta": {"OBJECT_NAME": "HAIYANG-1B", "OBJECT_ID": "2007-010A", "EPOCH": "2025-12-04T04:53:10.930272", "MEAN_MOTION": 14.30960734, "ECCENTRICITY": 0.00145664, "INCLINATION": 98.3307, "RA_OF_ASC_NODE": 322.8348, "ARG_OF_PERICENTER": 61.6251, "MEAN_ANOMALY": 298.6399, "EPHEMERIS_TYPE": 0, "CLASSIFICATION_TYPE": "U", "NORAD_CAT_ID": 31113, "ELEMENT_SET_NO": 999, "REV_AT_EPOCH": 97274, "BSTAR": 0.00011716773, "MEAN_MOTION_DOT": 2.67e-06, "MEAN_MOTION_DDOT": 0}, "tle": {"line1": "1 31113U 07010A   25338.20359873  .00000267  00000+0  11717-3 0  9999", "line2": "2 31113  98.3307 322.8348 0014566  61.6251 298.6399 14.30960734972746"}}, "geometry": {"type": "Point", "coordinates": [57.772596808507274, -81.64025424937593]}}, {"type": "Feature", "properties": {"norad_id": 31598, "name": "COSMO-SKYMED 1", "group": "resource", "lat": -63.169863662271744, "lon": -179.93708821441618, "alt_km": 588.2233078013196, "timestamp": "2025-12-04T19:33:59.287966+00:00", "meta": {"OBJECT_NAME": "COSMO-SKYMED 1", "OBJECT_ID": "2007-023A", "EPOCH": "2025-12-04T07:00:30.547008", "MEAN_MOTION": 14.95669801, "ECCENTRICITY": 0.00013599, "INCLINATION": 97.8838, "RA_OF_ASC_NODE": 163.6365, "ARG_OF_PERICENTER": 79.8505, "MEAN_ANOMALY": 280.2869, "EPHEMERIS_TYPE": 0, "CLASSIFICATION_TYPE": "U", "NORAD_CAT_ID": 31598, "ELEMENT_SET_NO": 999, "REV_AT_EPOCH": 64, "BSTAR": 0.00073265811, "MEAN_MOTION_DOT": 8.095e-05, "MEAN_MOTION_DDOT": 0}, "tle": {"line1": "1 31598U 07023A   25338.29202022  .00008095  00000+0  73266-3 0  9996", "line2": "2 31598  97.8838 163.6365 0001359  79.8505 280.2869 14.95669801   647"}}, "geometry": {"type": "Point", "coordinates": [-179.93708821441618, -63.169863662271744]}}, {"type": "Feature", "properties": {"norad_id": 31698, "name": "TERRASAR-X", "group": "resource", "lat": 4.335591575125114, "lon": -16.25537220968409, "alt_km": 510.59086871812724, "timestamp": "2025-12-04T19:33:59.287975+00:00", "meta": {"OBJECT_NAME": "TERRASAR-X", "OBJECT_ID": "2007-026A", "EPOCH": "2025-12-03T15:05:32.684928", "MEAN_MOTION": 15.19160309, "ECCENTRICITY": 0.0001999, "INCLINATION": 97.4447, "RA_OF_ASC_NODE": 343.1435, "ARG_OF_PERICENTER": 87.129, "MEAN_ANOMALY": 273.0173, "EPHEMERIS_TYPE": 0, "CLASSIFICATION_TYPE": "U", "NORAD_CAT_ID": 31698, "ELEMENT_SET_NO": 999, "REV_AT_EPOCH": 2353, "BSTAR": 0.00010298495, "MEAN_MOTION_DOT": 2.097e-05, "MEAN_MOTION_DDOT": 0}, "tle": {"line1": "1 31698U 07026A   25337.62885052  .00002097  00000+0  10298-3 0  9998", "line2": "2 31698  97.4447 343.1435 0001999  87.1290 273.0173 15.19160309 23533"}}, "geometry": {"type": "Point", "coordinates": [-16.25537220968409, 4.335591575125114]}}, {"type": "Feature", "properties": {"norad_id": 32060, "name": "WORLDVIEW-1 (WV-1)", "group": "resource", "lat": -30.758758045331284, "lon": -88.01733237930915, "alt_km": 498.6366502160781, "timestamp": "2025-12-04T19:33:59.287985+00:00", "meta": {"OBJECT_NAME": "WORLDVIEW-1 (WV-1)", "OBJECT_ID": "2007-041A", "EPOCH": "2025-12-04T07:37:00.691104", "MEAN_MOTION": 15.2447385, "ECCENTRICITY": 7.621e-05, "INCLINATION": 97.3841, "RA_OF_ASC_NODE": 95.9186, "ARG_OF_PERICENTER": 95.8163, "MEAN_ANOMALY": 264.3162, "EPHEMERIS_TYPE": 0, "CLASSIFICATION_TYPE": "U", "NORAD_CAT_ID": 32060, "ELEMENT_SET_NO": 999, "REV_AT_EPOCH": 1319, "BSTAR": 0.00072682955, "MEAN_MOTION_DOT": 0.0001781, "MEAN_MOTION_DDOT": 0}, "tle": {"line1": "1 32060U 07041A   25338.31736911  .00017810  00000+0  72683-3 0  9990", "line2": "2 32060  97.3841  95.9186 0000762  95.8163 264.3162 15.24473850 13197"}}, "geometry": {"type": "Point", "coordinates": [-88.01733237930915, -30.758758045331284]}}]}